ORBCOMM FM115           
1 41186U 15081H   25067.27530484  .00001387  00000+0  30726-3 0  9997
2 41186  46.9981 159.4012 0001692 277.7312  82.3382 14.62175775493005
ORBCOMM FM108           
1 41187U 15081J   25066.75309499  .00001552  00000+0  37207-3 0  9995
2 41187  47.0040 225.9143 0003304 208.6842 151.3862 14.57870931491997
ORBCOMM FM117           
1 41188U 15081K   25067.47321658  .00001248  00000+0  30646-3 0  9999
2 41188  47.0002 221.3108 0003801 218.6406 141.4208 14.57871620492199
ORBCOMM FM116           
1 41189U 15081L   25067.05286327  .00001462  00000+0  35273-3 0  9996
2 41189  47.0028 313.1581 0001822 298.4887  61.5814 14.57864883490896
